{
  "type": "FeatureCollection",
  "features": [
    {
      "type": "Feature",
      "properties": {
        "norad_id": 40545,
        "name": "GSAT0204 (GALILEO 8)",
        "group": "gnss",
        "lat": -21.67905678958659,
        "lon": -28.64757272430378,
        "alt_km": 23217.885942010955,
        "timestamp": "2025-12-22T20:43:46.091667+00:00",
        "meta_object_name": "GSAT0204 (GALILEO 8)",
        "meta_object_id": "2015-017B",
        "meta_epoch": "2025-12-20T13:26:28.826304",
        "meta_mean_motion": 1.70475697,
        "meta_eccentricity": 0.0006133,
        "meta_inclination": 56.8522,
        "meta_ra_of_asc_node": 346.4847,
        "meta_arg_of_pericenter": 266.5447,
        "meta_mean_anomaly": 93.3948,
        "meta_ephemeris_type": 0,
        "meta_classification_type": "U",
        "meta_norad_cat_id": 40545,
        "meta_element_set_no": 999,
        "meta_rev_at_epoch": 2920,
        "meta_bstar": 0,
        "meta_mean_motion_dot": -7e-07,
        "meta_mean_motion_ddot": 0,
        "tle_line1": "1 40545U 15017B   25354.56005586 -.00000070  00000+0  00000+0 0  9992",
        "tle_line2": "2 40545  56.8522 346.4847 0006133 266.5447  93.3948  1.70475697 29206"
      },
      "geometry": {
        "type": "Point",
        "coordinates": [
          -28.64757272430378,
          -21.67905678958659
        ]
      }
    },
    {
      "type": "Feature",
      "properties": {
        "norad_id": 40549,
        "name": "BEIDOU-3S IGSO-1S (C31)",
        "group": "gnss",
        "lat": -14.88866324369663,
        "lon": 130.65234901633374,
        "alt_km": 35630.76874698192,
        "timestamp": "2025-12-22T20:43:46.091682+00:00",
        "meta_object_name": "BEIDOU-3S IGSO-1S (C31)",
        "meta_object_id": "2015-019A",
        "meta_epoch": "2025-12-18T19:55:38.829792",
        "meta_mean_motion": 1.00292047,
        "meta_eccentricity": 0.0036331,
        "meta_inclination": 49.5404,
        "meta_ra_of_asc_node": 297.6395,
        "meta_arg_of_pericenter": 194.0028,
        "meta_mean_anomaly": 349.3621,
        "meta_ephemeris_type": 0,
        "meta_classification_type": "U",
        "meta_norad_cat_id": 40549,
        "meta_element_set_no": 999,
        "meta_rev_at_epoch": 3926,
        "meta_bstar": 0,
        "meta_mean_motion_dot": -1.83e-06,
        "meta_mean_motion_ddot": 0,
        "tle_line1": "1 40549U 15019A   25352.83031053 -.00000183  00000+0  00000+0 0  9999",
        "tle_line2": "2 40549  49.5404 297.6395 0036331 194.0028 349.3621  1.00292047 39264"
      },
      "geometry": {
        "type": "Point",
        "coordinates": [
          130.65234901633374,
          -14.88866324369663
        ]
      }
    },
    {
      "type": "Feature",
      "properties": {
        "norad_id": 40730,
        "name": "GPS BIIF-10 (PRN 08)",
        "group": "gnss",
        "lat": 51.804951598942125,
        "lon": 27.633620731834128,
        "alt_km": 20106.964395960906,
        "timestamp": "2025-12-22T20:43:46.091694+00:00",
        "meta_object_name": "GPS BIIF-10 (PRN 08)",
        "meta_object_id": "2015-033A",
        "meta_epoch": "2025-12-21T17:23:51.616608",
        "meta_mean_motion": 2.00565211,
        "meta_eccentricity": 0.01114778,
        "meta_inclination": 54.1229,
        "meta_ra_of_asc_node": 274.4032,
        "meta_arg_of_pericenter": 27.0282,
        "meta_mean_anomaly": 333.5929,
        "meta_ephemeris_type": 0,
        "meta_classification_type": "U",
        "meta_norad_cat_id": 40730,
        "meta_element_set_no": 999,
        "meta_rev_at_epoch": 7643,
        "meta_bstar": 0,
        "meta_mean_motion_dot": -1.3e-07,
        "meta_mean_motion_ddot": 0,
        "tle_line1": "1 40730U 15033A   25355.72490297 -.00000013  00000+0  00000+0 0  9999",
        "tle_line2": "2 40730  54.1229 274.4032 0111477  27.0282 333.5929  2.00565211 76439"
      },
      "geometry": {
        "type": "Point",
        "coordinates": [
          27.633620731834128,
          51.804951598942125
        ]
      }
    },
    {
      "type": "Feature",
      "properties": {
        "norad_id": 40748,
        "name": "BEIDOU-3S M2S (C58)",
        "group": "gnss",
        "lat": 37.52030279945984,
        "lon": 95.62566179854963,
        "alt_km": 21548.580981194573,
        "timestamp": "2025-12-22T20:43:46.091705+00:00",
        "meta_object_name": "BEIDOU-3S M2S (C58)",
        "meta_object_id": "2015-037A",
        "meta_epoch": "2025-12-22T03:06:37.980000",
        "meta_mean_motion": 1.86229546,
        "meta_eccentricity": 0.00118585,
        "meta_inclination": 55.0305,
        "meta_ra_of_asc_node": 308.1418,
        "meta_arg_of_pericenter": 270.827,
        "meta_mean_anomaly": 89.0356,
        "meta_ephemeris_type": 0,
        "meta_classification_type": "U",
        "meta_norad_cat_id": 40748,
        "meta_element_set_no": 999,
        "meta_rev_at_epoch": 7082,
        "meta_bstar": 0,
        "meta_mean_motion_dot": -5.8e-07,
        "meta_mean_motion_ddot": 0,
        "tle_line1": "1 40748U 15037A   25356.12960625 -.00000058  00000+0  00000+0 0  9993",
        "tle_line2": "2 40748  55.0305 308.1418 0011858 270.8270  89.0356  1.86229546 70828"
      },
      "geometry": {
        "type": "Point",
        "coordinates": [
          95.62566179854963,
          37.52030279945984
        ]
      }
    },
    {
      "type": "Feature",
      "properties": {
        "norad_id": 40749,
        "name": "BEIDOU-3S M1S (C57)",
        "group": "gnss",
        "lat": -17.287973354783034,
        "lon": -64.48472878431757,
        "alt_km": 21518.789701810656,
        "timestamp": "2025-12-22T20:43:46.091715+00:00",
        "meta_object_name": "BEIDOU-3S M1S (C57)",
        "meta_object_id": "2015-037B",
        "meta_epoch": "2025-12-21T06:50:01.998240",
        "meta_mean_motion": 1.86253999,
        "meta_eccentricity": 0.00036481,
        "meta_inclination": 55.0276,
        "meta_ra_of_asc_node": 308.16,
        "meta_arg_of_pericenter": 1.485,
        "meta_mean_anomaly": 358.5113,
        "meta_ephemeris_type": 0,
        "meta_classification_type": "U",
        "meta_norad_cat_id": 40749,
        "meta_element_set_no": 999,
        "meta_rev_at_epoch": 7081,
        "meta_bstar": 0,
        "meta_mean_motion_dot": -6.3e-07,
        "meta_mean_motion_ddot": 0,
        "tle_line1": "1 40749U 15037B   25355.28474535 -.00000063  00000+0  00000+0 0  9996",
        "tle_line2": "2 40749  55.0276 308.1600 0003648   1.4850 358.5113  1.86253999 70812"
      },
      "geometry": {
        "type": "Point",
        "coordinates": [
          -64.48472878431757,
          -17.287973354783034
        ]
      }
    },
    {
      "type": "Feature",
      "properties": {
        "norad_id": 40889,
        "name": "GSAT0205 (GALILEO 9)",
        "group": "gnss",
        "lat": 47.41037378929776,
        "lon": -3.14548600047324,
        "alt_km": 23211.918863200946,
        "timestamp": "2025-12-22T20:43:46.091729+00:00",
        "meta_object_name": "GSAT0205 (GALILEO 9)",
        "meta_object_id": "2015-045A",
        "meta_epoch": "2025-12-20T21:57:55.201536",
        "meta_mean_motion": 1.70473188,
        "meta_eccentricity": 0.00060952,
        "meta_inclination": 55.0008,
        "meta_ra_of_asc_node": 226.5322,
        "meta_arg_of_pericenter": 41.0262,
        "meta_mean_anomaly": 319.1287,
        "meta_ephemeris_type": 0,
        "meta_classification_type": "U",
        "meta_norad_cat_id": 40889,
        "meta_element_set_no": 999,
        "meta_rev_at_epoch": 6397,
        "meta_bstar": 0,
        "meta_mean_motion_dot": 7.2e-07,
        "meta_mean_motion_ddot": 0,
        "tle_line1": "1 40889U 15045A   25354.91522224  .00000072  00000+0  00000+0 0  9997",
        "tle_line2": "2 40889  55.0008 226.5322 0006095  41.0262 319.1287  1.70473188 63971"
      },
      "geometry": {
        "type": "Point",
        "coordinates": [
          -3.14548600047324,
          47.41037378929776
        ]
      }
    },
    {
      "type": "Feature",
      "properties": {
        "norad_id": 40890,
        "name": "GSAT0206 (GALILEO 10)",
        "group": "gnss",
        "lat": -15.940562584570252,
        "lon": -145.05103891041722,
        "alt_km": 23219.096947016766,
        "timestamp": "2025-12-22T20:43:46.091740+00:00",
        "meta_object_name": "GSAT0206 (GALILEO 10)",
        "meta_object_id": "2015-045B",
        "meta_epoch": "2025-12-21T03:15:40.639392",
        "meta_mean_motion": 1.70473045,
        "meta_eccentricity": 0.00044191,
        "meta_inclination": 54.9998,
        "meta_ra_of_asc_node": 226.5212,
        "meta_arg_of_pericenter": 45.8333,
        "meta_mean_anomaly": 314.3117,
        "meta_ephemeris_type": 0,
        "meta_classification_type": "U",
        "meta_norad_cat_id": 40890,
        "meta_element_set_no": 999,
        "meta_rev_at_epoch": 6400,
        "meta_bstar": 0,
        "meta_mean_motion_dot": 7.2e-07,
        "meta_mean_motion_ddot": 0,
        "tle_line1": "1 40890U 15045B   25355.13588703  .00000072  00000+0  00000+0 0  9998",
        "tle_line2": "2 40890  54.9998 226.5212 0004419  45.8333 314.3117  1.70473045 64002"
      },
      "geometry": {
        "type": "Point",
        "coordinates": [
          -145.05103891041722,
          -15.940562584570252
        ]
      }
    }
  ]
}